{
"type": "FeatureCollection",
"name": "sql_statement",
"crs": { "type": "name", "properties": { "name": "urn:ogc:def:crs:OGC:1.3:CRS84" } },
"features": [
{ "type": "Feature", "properties": { "amenity": "fire_station", "name": "Chicago Engine Company 54", "addr:state": "IL", "ele": "182", "operator": null, "addr:city": null, "addr:housenumber": null, "addr:street": null }, "geometry": { "type": "Point", "coordinates": [ -87.637969, 41.7651501 ] } },
{ "type": "Feature", "properties": { "amenity": "fire_station", "name": "Chicago Fire Department ARFF Station #2", "addr:state": null, "ele": null, "operator": null, "addr:city": null, "addr:housenumber": null, "addr:street": null }, "geometry": { "type": "Point", "coordinates": [ -87.9159076, 41.9880416 ] } },
{ "type": "Feature", "properties": { "amenity": "fire_station", "name": "Chicago Fire Department ARFF Station #4", "addr:state": null, "ele": null, "operator": null, "addr:city": null, "addr:housenumber": null, "addr:street": null }, "geometry": { "type": "Point", "coordinates": [ -87.918549, 42.0007389 ] } },
{ "type": "Feature", "properties": { "amenity": "fire_station", "name": "Chicago Fire Department Engine Comany 97", "addr:state": null, "ele": null, "operator": null, "addr:city": null, "addr:housenumber": null, "addr:street": null }, "geometry": { "type": "Point", "coordinates": [ -87.5445103, 41.6519814 ] } },
{ "type": "Feature", "properties": { "amenity": "fire_station", "name": "Chicago Fire Department Engine Company 101", "addr:state": "IL", "ele": "187", "operator": null, "addr:city": null, "addr:housenumber": null, "addr:street": null }, "geometry": { "type": "Point", "coordinates": [ -87.6801073, 41.7686231 ] } },
{ "type": "Feature", "properties": { "amenity": "fire_station", "name": "Chicago Fire Department Engine Company 107", "addr:state": "IL", "ele": "183", "operator": null, "addr:city": null, "addr:housenumber": null, "addr:street": null }, "geometry": { "type": "Point", "coordinates": [ -87.6956017, 41.8681086 ] } },
{ "type": "Feature", "properties": { "amenity": "fire_station", "name": "Chicago Fire Department Engine Company 115", "addr:state": null, "ele": null, "operator": null, "addr:city": null, "addr:housenumber": null, "addr:street": null }, "geometry": { "type": "Point", "coordinates": [ -87.644636, 41.6765589 ] } },
{ "type": "Feature", "properties": { "amenity": "fire_station", "name": "Chicago Fire Department Engine Company 122", "addr:state": "IL", "ele": "179", "operator": null, "addr:city": null, "addr:housenumber": null, "addr:street": null }, "geometry": { "type": "Point", "coordinates": [ -87.6209791, 41.7508206 ] } },
{ "type": "Feature", "properties": { "amenity": "fire_station", "name": "Chicago Fire Department Engine Company 127", "addr:state": "IL", "ele": "189", "operator": null, "addr:city": null, "addr:housenumber": null, "addr:street": null }, "geometry": { "type": "Point", "coordinates": [ -87.752541, 41.7786109 ] } },
{ "type": "Feature", "properties": { "amenity": "fire_station", "name": "Chicago Fire Department Engine Company 15", "addr:state": "IL", "ele": "189", "operator": "Chicago Fire Department", "addr:city": null, "addr:housenumber": null, "addr:street": null }, "geometry": { "type": "Point", "coordinates": [ -87.7026824, 41.7471545 ] } },
{ "type": "Feature", "properties": { "amenity": "fire_station", "name": "Chicago Fire Department Engine Company 16", "addr:state": null, "ele": null, "operator": null, "addr:city": null, "addr:housenumber": null, "addr:street": null }, "geometry": { "type": "Point", "coordinates": [ -87.6242427, 41.8233384 ] } },
{ "type": "Feature", "properties": { "amenity": "fire_station", "name": "Chicago Fire Department Engine Company 19", "addr:state": null, "ele": null, "operator": null, "addr:city": null, "addr:housenumber": null, "addr:street": null }, "geometry": { "type": "Point", "coordinates": [ -87.6178196, 41.8322993 ] } },
{ "type": "Feature", "properties": { "amenity": "fire_station", "name": "Chicago Fire Department Engine Company 26", "addr:state": null, "ele": null, "operator": null, "addr:city": null, "addr:housenumber": null, "addr:street": null }, "geometry": { "type": "Point", "coordinates": [ -87.6818853, 41.881513 ] } },
{ "type": "Feature", "properties": { "amenity": "fire_station", "name": "Chicago Fire Department Engine Company 30", "addr:state": "IL", "ele": "181", "operator": null, "addr:city": null, "addr:housenumber": null, "addr:street": null }, "geometry": { "type": "Point", "coordinates": [ -87.6671918, 41.9023124 ] } },
{ "type": "Feature", "properties": { "amenity": "fire_station", "name": "Chicago Fire Department Engine Company 35", "addr:state": null, "ele": null, "operator": null, "addr:city": null, "addr:housenumber": null, "addr:street": null }, "geometry": { "type": "Point", "coordinates": [ -87.6772372, 41.9162441 ] } },
{ "type": "Feature", "properties": { "amenity": "fire_station", "name": "Chicago Fire Department Engine Company 45", "addr:state": "IL", "ele": "182", "operator": null, "addr:city": null, "addr:housenumber": null, "addr:street": null }, "geometry": { "type": "Point", "coordinates": [ -87.6069203, 41.811212 ] } },
{ "type": "Feature", "properties": { "amenity": "fire_station", "name": "Chicago Fire Department Engine Company 47", "addr:state": null, "ele": null, "operator": null, "addr:city": null, "addr:housenumber": null, "addr:street": null }, "geometry": { "type": "Point", "coordinates": [ -87.6138742, 41.7732422 ] } },
{ "type": "Feature", "properties": { "amenity": "fire_station", "name": "Chicago Fire Department Engine Company 50", "addr:state": "IL", "ele": "182", "operator": null, "addr:city": null, "addr:housenumber": null, "addr:street": null }, "geometry": { "type": "Point", "coordinates": [ -87.6432964, 41.8032884 ] } },
{ "type": "Feature", "properties": { "amenity": "fire_station", "name": "Chicago Fire Department Engine Company 56", "addr:state": "IL", "ele": "180", "operator": null, "addr:city": "Chicago", "addr:housenumber": "2214", "addr:street": "West Barry Avenue" }, "geometry": { "type": "Point", "coordinates": [ -87.6838586, 41.9378998 ] } },
{ "type": "Feature", "properties": { "amenity": "fire_station", "name": "Chicago Fire Department Engine Company 60", "addr:state": null, "ele": null, "operator": null, "addr:city": null, "addr:housenumber": null, "addr:street": null }, "geometry": { "type": "Point", "coordinates": [ -87.5976923, 41.7954282 ] } },
{ "type": "Feature", "properties": { "amenity": "fire_station", "name": "Chicago Fire Department Engine Company 62", "addr:state": "IL", "ele": "185", "operator": null, "addr:city": null, "addr:housenumber": null, "addr:street": null }, "geometry": { "type": "Point", "coordinates": [ -87.6216865, 41.6872711 ] } },
{ "type": "Feature", "properties": { "amenity": "fire_station", "name": "Chicago Fire Department Engine Company 63", "addr:state": null, "ele": null, "operator": null, "addr:city": null, "addr:housenumber": null, "addr:street": null }, "geometry": { "type": "Point", "coordinates": [ -87.5898282, 41.7735182 ] } },
{ "type": "Feature", "properties": { "amenity": "fire_station", "name": "Chicago Fire Department Engine Company 64", "addr:state": null, "ele": null, "operator": "Chicago Fire Department", "addr:city": null, "addr:housenumber": null, "addr:street": null }, "geometry": { "type": "Point", "coordinates": [ -87.7215825, 41.7530195 ] } },
{ "type": "Feature", "properties": { "amenity": "fire_station", "name": "Chicago Fire Department Engine Company 65", "addr:state": null, "ele": null, "operator": "Chicago Fire Department", "addr:city": null, "addr:housenumber": null, "addr:street": null }, "geometry": { "type": "Point", "coordinates": [ -87.6996969, 41.8175448 ] } },
{ "type": "Feature", "properties": { "amenity": "fire_station", "name": "Chicago Fire Department Engine Company 7", "addr:state": "IL", "ele": "187", "operator": null, "addr:city": null, "addr:housenumber": null, "addr:street": null }, "geometry": { "type": "Point", "coordinates": [ -87.7499325, 41.9385081 ] } },
{ "type": "Feature", "properties": { "amenity": "fire_station", "name": "Chicago Fire Department Engine Company 73", "addr:state": "IL", "ele": "183", "operator": null, "addr:city": null, "addr:housenumber": null, "addr:street": null }, "geometry": { "type": "Point", "coordinates": [ -87.6427167, 41.7368442 ] } },
{ "type": "Feature", "properties": { "amenity": "fire_station", "name": "Chicago Fire Department Engine Company 75", "addr:state": null, "ele": null, "operator": null, "addr:city": null, "addr:housenumber": null, "addr:street": null }, "geometry": { "type": "Point", "coordinates": [ -87.6229608, 41.6763355 ] } },
{ "type": "Feature", "properties": { "amenity": "fire_station", "name": "Chicago Fire Department Engine Company 8", "addr:state": null, "ele": null, "operator": null, "addr:city": null, "addr:housenumber": null, "addr:street": null }, "geometry": { "type": "Point", "coordinates": [ -87.6323703, 41.8531124 ] } },
{ "type": "Feature", "properties": { "amenity": "fire_station", "name": "Chicago Fire Department Engine Company 88", "addr:state": "IL", "ele": "186", "operator": "Chicago Fire Department", "addr:city": null, "addr:housenumber": null, "addr:street": null }, "geometry": { "type": "Point", "coordinates": [ -87.7149486, 41.7857875 ] } },
{ "type": "Feature", "properties": { "amenity": "fire_station", "name": "Chicago Fire Department Engine Company 92", "addr:state": null, "ele": null, "operator": null, "addr:city": null, "addr:housenumber": null, "addr:street": null }, "geometry": { "type": "Point", "coordinates": [ -87.699001, 41.6918181 ] } },
{ "type": "Feature", "properties": { "amenity": "fire_station", "name": "Chicago Fire Department Engine Company 93", "addr:state": "IL", "ele": "184", "operator": null, "addr:city": null, "addr:housenumber": null, "addr:street": null }, "geometry": { "type": "Point", "coordinates": [ -87.6319769, 41.7054442 ] } },
{ "type": "Feature", "properties": { "amenity": "fire_station", "name": "Chicago Fire Department Engine Company 94", "addr:state": "IL", "ele": "189", "operator": null, "addr:city": null, "addr:housenumber": null, "addr:street": null }, "geometry": { "type": "Point", "coordinates": [ -87.7716042, 41.9496661 ] } },
{ "type": "Feature", "properties": { "amenity": "fire_station", "name": "Chicago Fire Department Engine Company 99", "addr:state": "IL", "ele": "181", "operator": "Chicago Fire Department", "addr:city": null, "addr:housenumber": null, "addr:street": null }, "geometry": { "type": "Point", "coordinates": [ -87.7283116, 41.8373203 ] } }
]
}
